NORAD_CAT_ID,OBJECT_NAME,OBJECT_TYPE,EPOCH,MEAN_MOTION,ECCENTRICITY,INCLINATION,RA_OF_ASC_NODE,ARG_OF_PERICENTER,MEAN_ANOMALY,BSTAR,MEAN_MOTION_DOT,MEAN_MOTION_DDOT,TLE_LINE0,TLE_LINE1,TLE_LINE2,SEMIMAJOR_AXIS,PERIOD,APOGEE,PERIGEE,DECAYED
53573.0,STARLINK-4547,PAYLOAD,2024-02-11 14:32:23,15.0884916,0.0001646,53.2156,212.6308,117.7848,242.3311,0.00016619,2.359e-05,0.0,0 STARLINK-4547,1 53573U 22101AY  24042.60582225  .00002359  00000-0  16619-3 0  9996,2 53573  53.2156 212.6308 0001646 117.7848 242.3311 15.08849160 82156,6917.852,95.437,540.856,538.579,0.0
53573.0,STARLINK-4547,PAYLOAD,2024-02-11 17:43:09,15.088513,0.0001608,53.216,212.0366,99.9966,260.1208,0.0002147,3.132e-05,0.0,0 STARLINK-4547,1 53573U 22101AY  24042.73830154  .00003132  00000-0  21470-3 0  9998,2 53573  53.2160 212.0366 0001608  99.9966 260.1208 15.08851300 82173,6917.846,95.437,540.823,538.598,0.0
53573.0,STARLINK-4547,PAYLOAD,2024-02-12 11:12:24,15.08841754,0.0001456,53.216,208.7648,117.7066,242.4074,1.4002e-05,-6.5e-07,0.0,0 STARLINK-4547,1 53573U 22101AY  24043.46694462 -.00000065  00000-0  14002-4 0  9996,2 53573  53.2160 208.7648 0001456 117.7066 242.4074 15.08841754 82287,6917.875,95.437,540.747,538.733,0.0
53573.0,STARLINK-4547,PAYLOAD,2024-02-12 14:23:10,15.08841874,0.0001589,53.2169,208.1706,110.7403,249.3759,1.92e-05,1.8e-07,0.0,0 STARLINK-4547,1 53573U 22101AY  24043.59942510  .00000018  00000-0  19200-4 0  9992,2 53573  53.2169 208.1706 0001589 110.7403 249.3759 15.08841874 82302,6917.875,95.437,540.839,538.64,0.0
53573.0,STARLINK-4547,PAYLOAD,2024-02-12 17:33:56,15.08839811,0.00016,53.2179,207.5802,85.5496,274.5679,3.1729e-06,-2.38e-06,0.0,0 STARLINK-4547,1 53573U 22101AY  24043.73190949 -.00000238  00000-0  31729-5 0  9995,2 53573  53.2179 207.5802 0001600  85.5496 274.5679 15.08839811 82329,6917.881,95.438,540.853,538.639,0.0
53573.0,STARLINK-4547,PAYLOAD,2024-02-13 11:03:11,15.08834473,0.0001642,53.2185,204.3104,95.7956,264.3223,-1.2459e-05,-4.86e-06,0.0,0 STARLINK-4547,1 53573U 22101AY  24044.46055398 -.00000486  00000-0 -12459-4 0  9998,2 53573  53.2185 204.3104 0001642  95.7956 264.3223 15.08834473 82439,6917.897,95.438,540.898,538.626,0.0
53573.0,STARLINK-4547,PAYLOAD,2024-02-13 14:13:58,15.08835018,0.0001645,53.2186,203.7156,99.2073,260.9105,-1.0818e-05,-4.6e-06,0.0,0 STARLINK-4547,1 53573U 22101AY  24044.59303396 -.00000460  00000-0 -10818-4 0  9995,2 53573  53.2186 203.7156 0001645  99.2073 260.9105 15.08835018 82451,6917.896,95.438,540.899,538.623,0.0
53573.0,STARLINK-4547,PAYLOAD,2024-02-13 17:24:44,15.08836224,0.0001553,53.2178,203.1206,95.0578,265.0592,-8.2319e-06,-4.19e-06,0.0,0 STARLINK-4547,1 53573U 22101AY  24044.72551312 -.00000419  00000-0 -82319-5 0  9993,2 53573  53.2178 203.1206 0001553  95.0578 265.0592 15.08836224 82472,6917.892,95.438,540.831,538.683,0.0
53573.0,STARLINK-4547,PAYLOAD,2024-02-14 14:04:45,15.08836403,0.0001385,53.2162,199.2524,88.4519,271.6632,0.0001066,1.409e-05,0.0,0 STARLINK-4547,1 53573U 22101AY  24045.58663255  .00001409  00000-0  10660-3 0  9994,2 53573  53.2162 199.2524 0001385  88.4519 271.6632 15.08836403 82609,6917.891,95.438,540.715,538.798,0.0
53573.0,STARLINK-4547,PAYLOAD,2024-02-14 17:15:31,15.08841124,0.0001415,53.2166,198.659,92.753,267.3624,0.00015197,2.132e-05,0.0,0 STARLINK-4547,1 53573U 22101AY  24045.71910890  .00002132  00000-0  15197-3 0  9993,2 53573  53.2166 198.6590 0001415  92.7530 267.3624 15.08841124 82625,6917.877,95.437,540.721,538.763,0.0
53573.0,STARLINK-4547,PAYLOAD,2024-02-15 02:47:50,15.08834518,0.0001379,53.2164,196.8741,97.0974,263.0175,0.00010478,1.38e-05,0.0,0 STARLINK-4547,1 53573U 22101AY  24046.11655493  .00001380  00000-0  10478-3 0  9994,2 53573  53.2164 196.8741 0001379  97.0974 263.0175 15.08834518 82689,6917.897,95.438,540.716,538.808,0.0
53573.0,STARLINK-4547,PAYLOAD,2024-02-15 13:55:32,15.08832378,0.0001384,53.2165,194.7928,95.2816,264.8334,5.2816e-05,5.53e-06,0.0,0 STARLINK-4547,1 53573U 22101AY  24046.58023986  .00000553  00000-0  52816-4 0  9995,2 53573  53.2165 194.7928 0001384  95.2816 264.8334 15.08832378 82751,6917.904,95.438,540.726,538.811,0.0
53573.0,STARLINK-4547,PAYLOAD,2024-02-15 18:41:41,15.08839647,0.0001523,53.2179,193.9008,96.9607,263.1559,0.00011579,1.555e-05,0.0,0 STARLINK-4547,1 53573U 22101AY  24046.77895412  .00001555  00000-0  11579-3 0  9990,2 53573  53.2179 193.9008 0001523  96.9607 263.1559 15.08839647 82787,6917.881,95.438,540.8,538.693,0.0
53573.0,STARLINK-4547,PAYLOAD,2024-02-16 13:46:19,15.08842198,0.0001549,53.2175,190.3315,90.6307,269.4862,5.6144e-05,6.06e-06,0.0,0 STARLINK-4547,1 53573U 22101AY  24047.57383447  .00000606  00000-0  56144-4 0  9993,2 53573  53.2175 190.3315 0001549  90.6307 269.4862 15.08842198 82906,6917.874,95.437,540.81,538.667,0.0
53573.0,STARLINK-4547,PAYLOAD,2024-02-16 16:57:05,15.08849408,0.0001488,53.2175,189.7367,91.3562,268.76,4.4011e-05,4.13e-06,0.0,0 STARLINK-4547,1 53573U 22101AY  24047.70630927  .00000413  00000-0  44011-4 0  9992,2 53573  53.2175 189.7367 0001488  91.3562 268.7600 15.08849408 82923,6917.852,95.437,540.746,538.687,0.0
53573.0,STARLINK-4547,PAYLOAD,2024-02-17 15:12:29,15.08838045,0.0001339,53.217,185.5744,98.7956,261.3188,7.337e-05,8.8e-06,0.0,0 STARLINK-4547,1 53573U 22101AY  24048.63367459  .00000880  00000-0  73370-4 0  9990,2 53573  53.2170 185.5744 0001339  98.7956 261.3188 15.08838045 83065,6917.886,95.438,540.678,538.825,0.0
53573.0,STARLINK-4547,PAYLOAD,2024-02-17 16:47:52,15.08844931,0.0001286,53.217,185.2751,94.0757,266.0383,6.1095e-05,6.85e-06,0.0,0 STARLINK-4547,1 53573U 22101AY  24048.69991045  .00000685  00000-0  61095-4 0  9994,2 53573  53.2170 185.2751 0001286  94.0757 266.0383 15.08844931 83070,6917.865,95.437,540.62,538.841,0.0
53573.0,STARLINK-4547,PAYLOAD,2024-02-18 15:03:16,15.08840043,0.0001626,53.2188,181.1136,87.9674,272.1504,1.8662e-05,9e-08,0.0,0 STARLINK-4547,1 53573U 22101AY  24049.62727787  .00000009  00000-0  18662-4 0  9990,2 53573  53.2188 181.1136 0001626  87.9674 272.1504 15.08840043 83217,6917.88,95.438,540.87,538.62,0.0
53573.0,STARLINK-4547,PAYLOAD,2024-02-19 14:54:03,15.08842785,0.0001456,53.2192,176.6518,95.7744,264.3414,2.4666e-05,1.05e-06,0.0,0 STARLINK-4547,1 53573U 22101AY  24050.62087498  .00000105  00000-0  24666-4 0  9998,2 53573  53.2192 176.6518 0001456  95.7744 264.3414 15.08842785 83365,6917.872,95.437,540.744,538.73,0.0
53573.0,STARLINK-4547,PAYLOAD,2024-02-20 11:34:04,15.08835771,0.0001457,53.2181,172.7875,86.0917,274.0242,1.6916e-05,-1.9e-07,0.0,0 STARLINK-4547,1 53573U 22101AY  24051.48200226 -.00000019  00000-0  16916-4 0  9993,2 53573  53.2181 172.7875 0001457  86.0917 274.0242 15.08835771 83490,6917.893,95.438,540.766,538.75,0.0
53573.0,STARLINK-4547,PAYLOAD,2024-02-20 14:44:50,15.08840526,0.0001368,53.2177,172.1915,89.9539,270.1609,3.441e-05,2.6e-06,0.0,0 STARLINK-4547,1 53573U 22101AY  24051.61447857  .00000260  00000-0  34410-4 0  9997,2 53573  53.2177 172.1915 0001368  89.9539 270.1609 15.08840526 83518,6917.879,95.438,540.69,538.797,0.0
53573.0,STARLINK-4547,PAYLOAD,2024-02-21 14:35:37,15.08843658,0.0001323,53.2175,167.7315,96.821,263.2932,0.0001059,1.398e-05,0.0,0 STARLINK-4547,1 53573U 22101AY  24052.60807437  .00001398  00000-0  10590-3 0  9996,2 53573  53.2175 167.7315 0001323  96.8210 263.2932 15.08843658 83661,6917.869,95.437,540.649,538.819,0.0
53573.0,STARLINK-4547,PAYLOAD,2024-02-22 11:15:39,15.08838574,0.000129,53.2173,163.8657,92.5861,267.5279,1.1084e-05,-1.11e-06,0.0,0 STARLINK-4547,1 53573U 22101AY  24053.46920230 -.00000111  00000-0  11084-4 0  9991,2 53573  53.2173 163.8657 0001290  92.5861 267.5279 15.08838574 83799,6917.885,95.438,540.642,538.857,0.0
53573.0,STARLINK-4547,PAYLOAD,2024-02-22 14:26:25,15.08843042,0.0001249,53.2174,163.2711,82.2589,277.8545,4.4737e-05,4.24e-06,0.0,0 STARLINK-4547,1 53573U 22101AY  24053.60167878  .00000424  00000-0  44737-4 0  9995,2 53573  53.2174 163.2711 0001249  82.2589 277.8545 15.08843042 83811,6917.871,95.437,540.6,538.872,0.0
53573.0,STARLINK-4547,PAYLOAD,2024-02-23 11:06:26,15.08832742,0.0001356,53.2181,159.405,81.6038,278.5108,-5.5643e-06,-3.76e-06,0.0,0 STARLINK-4547,1 53573U 22101AY  24054.46280956 -.00000376  00000-0 -55643-5 0  9990,2 53573  53.2181 159.4050 0001356  81.6038 278.5108 15.08832742 83945,6917.903,95.438,540.706,538.83,0.0
53573.0,STARLINK-4547,PAYLOAD,2024-02-23 14:17:12,15.08849621,0.0001272,53.218,158.8106,73.5165,286.5967,-9.8768e-05,-1.86e-05,0.0,0 STARLINK-4547,1 53573U 22101AY  24054.59528376 -.00001860  00000-0 -98768-4 0  9998,2 53573  53.2180 158.8106 0001272  73.5165 286.5967 15.08849621 83965,6917.851,95.437,540.596,538.836,0.0
53573.0,STARLINK-4547,PAYLOAD,2024-02-23 15:52:35,15.08848346,0.0001255,53.2179,158.5121,74.7569,285.3562,-5.14e-05,-1.106e-05,0.0,0 STARLINK-4547,1 53573U 22101AY  24054.66152242 -.00001106  00000-0 -51400-4 0  9996,2 53573  53.2179 158.5121 0001255  74.7569 285.3562 15.08848346 83971,6917.855,95.437,540.588,538.852,0.0
53573.0,STARLINK-4547,PAYLOAD,2024-02-24 10:57:13,15.08837067,0.0001584,53.2187,154.9436,73.7084,286.4083,5.261e-05,5.49e-06,0.0,0 STARLINK-4547,1 53573U 22101AY  24055.45640861  .00000549  00000-0  52610-4 0  9995,2 53573  53.2187 154.9436 0001584  73.7084 286.4083 15.08837067 84097,6917.889,95.438,540.85,538.659,0.0
53573.0,STARLINK-4547,PAYLOAD,2024-02-24 14:07:59,15.0883831,0.0001764,53.2189,154.349,70.8539,289.2644,0.00012034,1.628e-05,0.0,0 STARLINK-4547,1 53573U 22101AY  24055.58888680  .00001628  00000-0  12034-3 0  9996,2 53573  53.2189 154.3490 0001764  70.8539 289.2644 15.08838310 84115,6917.886,95.438,540.971,538.53,0.0
53573.0,STARLINK-4547,PAYLOAD,2024-02-24 15:43:22,15.08839787,0.0001764,53.219,154.0536,76.0325,284.0863,0.00012331,1.675e-05,0.0,0 STARLINK-4547,1 53573U 22101AY  24055.65512590  .00001675  00000-0  12331-3 0  9990,2 53573  53.2190 154.0536 0001764  76.0325 284.0863 15.08839787 84122,6917.881,95.438,540.966,538.526,0.0
